EUTELSAT QUANTUM        
1 49056U 21069B   25355.41652513  .00000148  00000+0  00000+0 0  9990
2 49056   0.0212  40.4204 0003347 239.5400   7.9319  1.00272395 16145
EUTELSAT KONNECT VHTS   
1 53765U 22110A   25355.55046500  .00000040  00000+0  00000+0 0  9999
2 53765   0.0618  99.3714 0002618 133.7511  58.1537  1.00270894  5043
EUTELSAT HOTBIRD 13F    
1 54048U 22134A   25355.76645045  .00000109  00000+0  00000+0 0  9998
2 54048   0.0526 292.2120 0002285  72.0612  15.2275  1.00271806 11592
EUTELSAT 10B            
1 54259U 22157A   25355.76584377  .00000091  00000+0  00000+0 0  9997
2 54259   0.0592  97.7142 0000911   9.4258 269.1639  1.00275334 11241
EUTELSAT 36D            
1 59346U 24059A   25355.48572458  .00000000  00000+0  00000+0 0  9998
2 59346   0.0244  29.7996 0000438 338.8651 292.3516  1.00272156  6367
